NORAD_CAT_ID,OBJECT_NAME,OBJECT_TYPE,EPOCH,MEAN_MOTION,ECCENTRICITY,INCLINATION,RA_OF_ASC_NODE,ARG_OF_PERICENTER,MEAN_ANOMALY,BSTAR,MEAN_MOTION_DOT,MEAN_MOTION_DDOT,TLE_LINE0,TLE_LINE1,TLE_LINE2,SEMIMAJOR_AXIS,PERIOD,APOGEE,PERIGEE,DECAYED
52705.0,STARLINK-3844,PAYLOAD,2022-06-28 14:00:01,15.73169271,0.000152,53.216,94.1504,25.3036,91.7186,-0.00031951,-0.00045163,0.0,0 STARLINK-3844,1 52705U 22053BB  22179.58334491 -.00045163  00000-0 -31951-3 0  9992,2 52705  53.2160  94.1504 0001520  25.3036  91.7186 15.73169271  6794,6727.983,91.535,350.87,348.825,0.0
52705.0,STARLINK-3844,PAYLOAD,2022-06-28 22:00:00,15.73147034,0.0001587,53.216,92.502,24.5238,181.3721,3.1247e-05,3.757e-05,0.0,0 STARLINK-3844,1 52705U 22053BB  22179.91667824  .00003757  00000-0  31247-4 0  9998,2 52705  53.2160  92.5020 0001587  24.5238 181.3721 15.73147034  1303,6728.045999999999,91.536,350.97900000000016,348.843,0.0
52705.0,STARLINK-3844,PAYLOAD,2022-06-29 14:00:01,15.73153509,0.000143,53.2153,89.2023,24.9647,358.6882,0.00054998,0.00077123,0.0,0 STARLINK-3844,1 52705U 22053BB  22180.58334491  .00077123  00000-0  54998-3 0  9999,2 52705  53.2153  89.2023 0001430  24.9647 358.6882 15.73153509  1307,6728.028,91.536,350.855,348.931,0.0
52705.0,STARLINK-3844,PAYLOAD,2022-06-29 22:00:00,15.73219426,0.0001534,53.2156,87.554,25.2707,87.2834,2.6945e-05,3.166e-05,0.0,0 STARLINK-3844,1 52705U 22053BB  22180.91667824  .00003166  00000-0  26945-4 0  9993,2 52705  53.2156  87.5540 0001534  25.2707  87.2834 15.73219426  7007,6727.84,91.532,350.737,348.673,0.0
52705.0,STARLINK-3844,PAYLOAD,2022-06-30 14:00:01,15.73237856,0.0001523,53.2158,84.2539,26.4221,264.0472,0.00023236,0.00032168,0.0,0 STARLINK-3844,1 52705U 22053BB  22181.58334491  .00032168  00000-0  23236-3 0  9991,2 52705  53.2158  84.2539 0001523  26.4221 264.0472 15.73237856  1300,6727.7869999999975,91.531,350.677,348.62800000000016,0.0
52705.0,STARLINK-3844,PAYLOAD,2022-06-30 22:00:00,15.73246405,0.0001729,53.2157,82.6055,32.5492,346.9143,-0.00030487,-0.00043274,0.0,0 STARLINK-3844,1 52705U 22053BB  22181.91667824 -.00043274  00000-0 -30487-3 0  9995,2 52705  53.2157  82.6055 0001729  32.5492 346.9143 15.73246405  1305,6727.763000000001,91.53,350.791,348.465,0.0
52705.0,STARLINK-3844,PAYLOAD,2022-07-01 14:00:01,15.73168836,0.0001734,53.215,79.305,41.4726,155.9119,0.00035179,0.00048975,0.0,0 STARLINK-3844,1 52705U 22053BB  22182.58334491  .00048975  00000-0  35179-3 0  9994,2 52705  53.2150  79.3050 0001734  41.4726 155.9119 15.73168836  1303,6727.984,91.535,351.016,348.682,0.0
52705.0,STARLINK-3844,PAYLOAD,2022-07-01 20:00:01,15.73208148,0.0001811,53.2155,78.0688,43.3935,130.6649,2.4546e-05,2.826e-05,0.0,0 STARLINK-3844,1 52705U 22053BB  22182.83334491  .00002826  00000-0  24546-4 0  9994,2 52705  53.2155  78.0688 0001811  43.3935 130.6649 15.73208148  7305,6727.871999999999,91.533,350.955,348.519,0.0
52705.0,STARLINK-3844,PAYLOAD,2022-07-01 22:00:00,15.73210216,0.0001869,53.2153,77.6571,41.0992,245.1933,-1.4429e-06,-8.24e-06,0.0,0 STARLINK-3844,1 52705U 22053BB  22182.91667824 -.00000824  00000-0 -14429-5 0  9990,2 52705  53.2153  77.6571 0001869  41.0992 245.1933 15.73210216  1301,6727.866,91.533,350.98800000000006,348.474,0.0
52705.0,STARLINK-3844,PAYLOAD,2022-07-02 14:00:01,15.73175631,0.000159,53.2155,74.3563,36.3932,67.8221,0.00042119,0.00058845,0.0,0 STARLINK-3844,1 52705U 22053BB  22183.58334491  .00058845  00000-0  42119-3 0  9994,2 52705  53.2155  74.3563 0001590  36.3932  67.8221 15.73175631  1300,6727.965,91.535,350.899,348.76,0.0
52705.0,STARLINK-3844,PAYLOAD,2022-07-02 22:00:00,15.73220225,0.0001793,53.2153,72.7083,34.67,158.4697,8.2711e-05,0.00011013,0.0,0 STARLINK-3844,1 52705U 22053BB  22183.91667824  .00011013  00000-0  82711-4 0  9999,2 52705  53.2153  72.7083 0001793  34.6700 158.4697 15.73220225  7485,6727.8380000000025,91.532,350.909,348.496,0.0
52705.0,STARLINK-3844,PAYLOAD,2022-07-03 14:00:01,15.73246002,0.0001535,53.2148,69.4071,35.5213,335.6466,-0.00034771,-0.00049231,0.0,0 STARLINK-3844,1 52705U 22053BB  22184.58334491 -.00049231  00000-0 -34771-3 0  9991,2 52705  53.2148  69.4071 0001535  35.5213 335.6466 15.73246002  1301,6727.764,91.531,350.662,348.596,0.0
52705.0,STARLINK-3844,PAYLOAD,2022-07-03 22:00:00,15.73171624,0.0001864,53.215,67.7592,41.0782,59.047,-0.00058755,-0.00082185,0.0,0 STARLINK-3844,1 52705U 22053BB  22184.91667824 -.00082185  00000-0 -58755-3 0  9990,2 52705  53.2150  67.7592 0001864  41.0782  59.0470 15.73171624  7632,6727.976,91.535,351.095,348.587,0.0
52705.0,STARLINK-3844,PAYLOAD,2022-07-04 14:00:01,15.731284699999998,0.0001821,53.2153,64.4585,46.5926,231.2362,0.00059023,0.00082782,0.0,0 STARLINK-3844,1 52705U 22053BB  22185.58334491  .00082782  00000-0  59023-3 0  9995,2 52705  53.2153  64.4585 0001821  46.5926 231.2362 15.73128470  7741,6728.099,91.537,351.189,348.73900000000015,0.0
52705.0,STARLINK-3844,PAYLOAD,2022-07-04 22:00:00,15.73191682,0.0002002,53.2153,62.8108,43.849,322.8624,0.00012702,0.00017237,0.0,0 STARLINK-3844,1 52705U 22053BB  22185.91667824  .00017237  00000-0  12702-3 0  9997,2 52705  53.2153  62.8108 0002002  43.8490 322.8624 15.73191682  1301,6727.919,91.534,351.131,348.43699999999984,0.0
52705.0,STARLINK-3844,PAYLOAD,2022-07-05 06:00:00,15.73228503,0.0001959,53.2148,61.1609,41.7552,53.8784,0.00013729,0.00018714,0.0,0 STARLINK-3844,1 52705U 22053BB  22186.25001157  .00018714  00000-0  13729-3 0  9997,2 52705  53.2148  61.1609 0001959  41.7552  53.8784 15.73228503  7845,6727.814,91.532,350.997,348.361,0.0
52705.0,STARLINK-3844,PAYLOAD,2022-07-05 14:00:01,15.73256176,0.0001626,53.215,59.5097,46.7209,137.876,-5.2418e-05,-7.988e-05,0.0,0 STARLINK-3844,1 52705U 22053BB  22186.58334491 -.00007988  00000-0 -52418-4 0  9995,2 52705  53.2150  59.5097 0001626  46.7209 137.8760 15.73256176  1304,6727.735,91.53,350.694,348.506,0.0
52705.0,STARLINK-3844,PAYLOAD,2022-07-05 22:00:00,15.7322111,0.000167,53.2152,57.8621,35.2238,238.3604,-0.00057861,-0.00081122,0.0,0 STARLINK-3844,1 52705U 22053BB  22186.91667824 -.00081122  00000-0 -57861-3 0  9999,2 52705  53.2152  57.8621 0001670  35.2238 238.3604 15.73221110  7955,6727.835,91.532,350.824,348.576,0.0
52705.0,STARLINK-3844,PAYLOAD,2022-07-06 14:00:01,15.73178459,0.0001466,53.2158,54.5609,34.6622,56.7339,0.00048393,0.00067784,0.0,0 STARLINK-3844,1 52705U 22053BB  22187.58334491  .00067784  00000-0  48393-3 0  9990,2 52705  53.2158  54.5609 0001466  34.6622  56.7339 15.73178459  1301,6727.956999999999,91.534,350.80800000000005,348.835,0.0
52705.0,STARLINK-3844,PAYLOAD,2022-07-06 19:42:44,15.73199103,0.0001114,53.2158,53.3841,98.4522,261.6624,0.00013189,0.00017929,0.0,0 STARLINK-3844,1 52705U 22053BB  22187.82134921  .00017929  00000-0  13189-3 0  9994,2 52705  53.2158  53.3841 0001114  98.4522 261.6624 15.73199103  8527,6727.898,91.533,350.51199999999994,349.01300000000015,0.0
52705.0,STARLINK-3844,PAYLOAD,2022-07-07 14:00:01,15.73222225,0.0001667,53.2157,49.6122,44.3279,313.9446,-8.474100000000001e-05,-0.00012508,0.0,0 STARLINK-3844,1 52705U 22053BB  22188.58334491 -.00012508  00000-0 -84741-4 0  9995,2 52705  53.2157  49.6122 0001667  44.3279 313.9446 15.73222225  8219,6727.831999999999,91.532,350.8180000000001,348.575,0.0
52705.0,STARLINK-3844,PAYLOAD,2022-07-07 22:00:00,15.73178265,0.0001899,53.2158,47.9647,41.5184,45.7138,0.00020309,0.00027951,0.0,0 STARLINK-3844,1 52705U 22053BB  22188.91667824  .00027951  00000-0  20309-3 0  9996,2 52705  53.2158  47.9647 0001899  41.5184  45.7138 15.73178265  1309,6727.956999999999,91.534,351.1,348.545,0.0
52705.0,STARLINK-3844,PAYLOAD,2022-07-08 04:00:00,15.73206752,0.0001929,53.2157,46.7275,38.5986,25.2919,-0.00012968,-0.00018787,0.0,0 STARLINK-3844,1 52705U 22053BB  22189.16667824 -.00018787  00000-0 -12968-3 0  9995,2 52705  53.2157  46.7275 0001929  38.5986  25.2919 15.73206752  8302,6727.876,91.533,351.039,348.4430000000001,0.0
52705.0,STARLINK-3844,PAYLOAD,2022-07-08 14:00:01,15.73226138,0.0001558,53.2164,44.6634,38.3601,226.8278,0.00073188,0.00103485,0.0,0 STARLINK-3844,1 52705U 22053BB  22189.58334491  .00103485  00000-0  73188-3 0  9991,2 52705  53.2164  44.6634 0001558  38.3601 226.8278 15.73226138  1306,6727.821,91.532,350.7340000000001,348.63699999999994,0.0
52705.0,STARLINK-3844,PAYLOAD,2022-07-08 22:00:01,15.73299731,0.0001781999999999,53.2163,43.0159,32.652,321.5876,-0.00043063,-0.00060882,0.0,0 STARLINK-3844,1 52705U 22053BB  22189.91668981 -.00060882  00000-0 -43063-3 0  9996,2 52705  53.2163  43.0159 0001782  32.6520 321.5876 15.73299731  8422,6727.611,91.527,350.675,348.277,0.0
52705.0,STARLINK-3844,PAYLOAD,2022-07-09 04:00:00,15.73288708,0.0001795,53.2157,41.7784,30.6551,300.2635,-0.0011575,-0.00160625,0.0,0 STARLINK-3844,1 52705U 22053BB  22190.16667824 -.00160625  00000-0 -11575-2 0  9998,2 52705  53.2157  41.7784 0001795  30.6551 300.2635 15.73288708  8463,6727.642,91.528,350.715,348.3,0.0
52705.0,STARLINK-3844,PAYLOAD,2022-07-09 14:00:01,15.73109235,0.0001665,53.2161,39.715,44.1499,127.9484,-0.00079601,-0.00110456,0.0,0 STARLINK-3844,1 52705U 22053BB  22190.58334491 -.00110456  00000-0 -79601-3 0  9997,2 52705  53.2161  39.7150 0001665  44.1499 127.9484 15.73109235  8529,6728.154,91.538,351.139,348.899,0.0
52705.0,STARLINK-3844,PAYLOAD,2022-07-09 20:00:01,15.73006273,0.0001706999999999,53.2159,38.4798,33.028,115.6646,0.00039537,0.00054772,0.0,0 STARLINK-3844,1 52705U 22053BB  22190.83334491  .00054772  00000-0  39537-3 0  9995,2 52705  53.2159  38.4798 0001707  33.0280 115.6646 15.73006273  8568,6728.448,91.544,351.461,349.164,0.0
52705.0,STARLINK-3844,PAYLOAD,2022-07-10 06:00:00,15.73131601,0.0001585999999999,53.2162,36.4177,27.8742,321.711,0.00011873,0.00016026,0.0,0 STARLINK-3844,1 52705U 22053BB  22191.25001157  .00016026  00000-0  11873-3 0  9995,2 52705  53.2162  36.4177 0001586  27.8742 321.7110 15.73131601  8638,6728.09,91.537,351.022,348.88800000000015,0.0
